STARLINK-1111
1 24924C 20001L   21325.12326657  .00008825  00000-0  59146-3 0  3255
2 24924  53.0522 192.6807 0002030  71.8278 338.2596 15.06379727    17
